ONEWEB-0029             
1 45445U 20020X   24130.63490653  .00001051  00000+0  29299-2 0  9991
2 45445  87.8991 173.9505 0001756  97.6033 262.5295 13.11428210201921
ONEWEB-0068             
1 45446U 20020Y   24130.68607091 -.00002887  00000+0 -81871-2 0  9997
2 45446  87.8988 173.9251 0001984 101.3456 258.7895 13.11392667201874
ONEWEB-0046             
1 45447U 20020Z   24130.68362741 -.00002255  00000+0 -64016-2 0  9999
2 45447  87.8992 173.9381 0001774  90.2439 269.8892 13.11397845201882
ONEWEB-0063             
1 45448U 20020AA  24130.63652597  .00000668  00000+0  18490-2 0  9995
2 45448  87.8989 173.9490 0001896  86.5539 273.5805 13.11424269201960
ONEWEB-0019             
1 45449U 20020AB  24130.61058553 -.00000719  00000+0 -20648-2 0  9993
2 45449  87.8996 173.9556 0001993  94.1149 266.0206 13.11407288201810
ONEWEB-0094             
1 45450U 20020AC  24130.57911992  .00000003  00000+0 -26213-4 0  9996
2 45450  87.9178 158.8113 0001912  97.1833 262.9516 13.17650418205094
ONEWEB-0087             
1 45451U 20020AD  24130.64299908  .00003863  00000+0  10856-1 0  9990
2 45451  87.8983 173.9210 0001833 100.1822 259.9513 13.11445979201850
ONEWEB-0082             
1 45452U 20020AE  24130.64460088  .00005226  00000+0  14693-1 0  9998
2 45452  87.8983 173.9243 0002027  97.1460 262.9898 13.11459106201943
ONEWEB-0050             
1 45453U 20020AF  24130.77086351  .00005694  00000+0  59835-3 0  9998
2 45453  88.0059  37.8697 0002135 155.6486 204.4843 14.89315726225908
ONEWEB-0034             
1 45454U 20020AG  24130.66416547 -.00003054  00000+0 -86610-2 0  9991
2 45454  87.8939 173.9352 0001735 102.9122 257.2200 13.11385125201866
ONEWEB-0060             
1 45455U 20020AH  24130.67227520 -.00003506  00000+0 -99357-2 0  9998
2 45455  87.8974 173.9326 0001401 107.4477 252.6804 13.11395735201823
ONEWEB-0086             
1 45456U 20020AJ  24130.61384951 -.00004152  00000+0 -11761-1 0  9995
2 45456  87.8978 173.9489 0001192 112.6135 247.5119 13.11384651201876
ONEWEB-0088             
1 45457U 20020AK  24130.66741555 -.00004200  00000+0 -11896-1 0  9991
2 45457  87.8935 173.9070 0001403  88.7038 271.4251 13.11386637201819
ONEWEB-0102             
1 47258U 20100A   24130.97005527 -.00000072  00000+0 -23680-3 0  9996
2 47258  87.8932 143.6295 0002161  89.4800 270.6577 13.12442414163969
ONEWEB-0109             
1 47259U 20100B   24130.74927605 -.00000353  00000+0 -10173-2 0  9996
2 47259  87.8937 143.6374 0002176  91.6058 268.5319 13.12443221163764
ONEWEB-0110             
1 47260U 20100C   24130.54439393 -.00000011  00000+0 -65806-4 0  9994
2 47260  87.8927 143.6852 0002181  95.3479 264.7898 13.12444957163903
ONEWEB-0111             
1 47261U 20100D   24130.95892586  .00000259  00000+0  68471-3 0  9999
2 47261  87.8933 143.5978 0002100  91.3551 268.7818 13.12444347163793
ONEWEB-0114             
1 47262U 20100E   24130.53167638 -.00000620  00000+0 -17582-2 0  9997
2 47262  87.8928 143.6999 0002471  84.9467 275.1943 13.12443497163692
ONEWEB-0117             
1 47263U 20100F   24130.75246074 -.00000358  00000+0 -10301-2 0  9994
2 47263  87.8933 143.6295 0002001  91.3070 268.8288 13.12443121163739
ONEWEB-0118             
1 47264U 20100G   24130.93669869  .00000372  00000+0  99811-3 0  9994
2 47264  87.8933 143.5969 0002268  76.3166 283.8214 13.12445551163950
ONEWEB-0119             
1 47265U 20100H   24130.73659144  .00000164  00000+0  41951-3 0  9999
2 47265  87.8933 143.6754 0002029  93.6263 266.5097 13.12441326163907
ONEWEB-0120             
1 47266U 20100J   24130.53022681 -.00000399  00000+0 -11441-2 0  9990
2 47266  87.8936 143.7049 0002135  92.5145 267.6228 13.12444073163904
ONEWEB-0121             
1 47267U 20100K   24130.74768184 -.00000317  00000+0 -91728-3 0  9996
2 47267  87.8930 143.6548 0001976  95.7620 264.3734 13.12443925163841
ONEWEB-0122             
1 47268U 20100L   24130.74278157 -.00000163  00000+0 -48729-3 0  9995
2 47268  87.8928 143.6604 0002161  92.8637 267.2739 13.12440311163758
ONEWEB-0123             
1 47269U 20100M   24130.96687103  .00000029  00000+0  45514-4 0  9994
2 47269  87.8931 143.6284 0002034  87.4074 272.7288 13.12443393163923
ONEWEB-0124             
1 47270U 20100N   24130.95576374  .00000353  00000+0  94528-3 0  9990
2 47270  87.8933 143.6269 0001902  99.3818 260.7526 13.12443038163806
ONEWEB-0125             
1 47271U 20100P   24130.93034451  .00000215  00000+0  56294-3 0  9999
2 47271  87.8934 143.5901 0001694  85.3395 274.7927 13.12442827163864
ONEWEB-0126             
1 47272U 20100Q   24130.95811109  .00000172  00000+0  44261-3 0  9998
2 47272  87.8931 143.5930 0002177  89.4163 270.7215 13.12443647163934
ONEWEB-0127             
1 47273U 20100R   24130.53804336 -.00000213  00000+0 -62680-3 0  9990
2 47273  87.8933 143.7032 0002151  90.5238 269.6137 13.12444187163907
ONEWEB-0128             
1 47274U 20100S   24130.94146806  .00000448  00000+0  12102-2 0  9998
2 47274  87.8939 143.6242 0002149  99.7577 260.3794 13.12442378163974
ONEWEB-0129             
1 47275U 20100T   24130.53963299 -.00000154  00000+0 -46338-3 0  9992
2 47275  87.8934 143.6733 0003526  76.4015 283.7506 13.12444435163857
ONEWEB-0130             
1 47276U 20100U   24130.94941402  .00000419  00000+0  11295-2 0  9995
2 47276  87.8931 143.6004 0002176  92.9245 267.2132 13.12442421163871
ONEWEB-0131             
1 47277U 20100V   24130.94623566  .00000479  00000+0  12948-2 0  9996
2 47277  87.8935 143.6149 0002037  95.2821 264.8540 13.12443849163914
ONEWEB-0132             
1 47278U 20100W   24130.74609979 -.00000290  00000+0 -84190-3 0  9999
2 47278  87.8933 143.6565 0001783  95.6022 264.5310 13.12437941163782
ONEWEB-0133             
1 47279U 20100X   24130.53326323 -.00000524  00000+0 -14924-2 0  9993
2 47279  87.8929 143.6993 0002001  96.0104 264.1252 13.12444684163911
ONEWEB-0134             
1 47280U 20100Y   24130.73181642  .00000205  00000+0  53479-3 0  9993
2 47280  87.8927 143.6484 0002254  96.2175 263.9210 13.12441790163912
ONEWEB-0135             
1 47281U 20100Z   24130.92874209 -.00000278  00000+0 -80778-3 0  9997
2 47281  87.8933 143.6225 0002093  93.3850 266.7518 13.12443643163968
ONEWEB-0136             
1 47282U 20100AA  24130.95100182  .00000454  00000+0  12261-2 0  9998
2 47282  87.8933 143.5867 0002513  96.7858 263.3557 13.12441892163894
ONEWEB-0137             
1 47283U 20100AB  24130.75561655 -.00000397  00000+0 -11389-2 0  9991
2 47283  87.8929 143.6518 0002127  88.1753 271.9619 13.12440804163777
ONEWEB-0138             
1 47284U 20100AC  24130.73497931  .00000060  00000+0  13194-3 0  9997
2 47284  87.8928 143.6683 0002138  91.0671 269.0703 13.12439726163856
ONEWEB-0139             
1 47285U 20100AD  24130.55392256  .00000276  00000+0  73281-3 0  9994
2 47285  87.8935 143.6754 0002086  92.9491 267.1876 13.12445100163905
ONEWEB-0140             
1 47286U 20100AE  24130.95735599  .00000327  00000+0  87473-3 0  9995
2 47286  87.8928 143.5995 0002158  92.6989 267.4387 13.12443133163929
ONEWEB-0141             
1 47287U 20100AF  24130.74847374 -.00000316  00000+0 -91302-3 0  9994
2 47287  87.8931 143.6403 0001901  86.4923 273.6423 13.12440572163882
ONEWEB-0142             
1 47288U 20100AG  24130.74212817 -.00000195  00000+0 -57831-3 0  9997
2 47288  87.8930 143.6342 0002236  86.3802 273.7582 13.12441609163879
ONEWEB-0143             
1 47289U 20100AH  24130.54280681 -.00000075  00000+0 -24368-3 0  9996
2 47289  87.8932 143.6938 0001969  90.6593 269.4761 13.12444365163828
ONEWEB-0144             
1 47290U 20100AJ  24130.74452729 -.00000238  00000+0 -69608-3 0  9991
2 47290  87.8930 143.6374 0002408  87.6578 272.4826 13.12443138163777
ONEWEB-0145             
1 47291U 20100AK  24130.94465020  .00000502  00000+0  13600-2 0  9994
2 47291  87.8932 143.6218 0002167  89.5167 270.6210 13.12444351163993
ONEWEB-0146             
1 47292U 20100AL  24130.93987452  .00000431  00000+0  11615-2 0  9997
2 47292  87.8932 143.6055 0001606  98.2261 261.9049 13.12444891163905
ONEWEB-0147             
1 47293U 20100AM  24130.75405242 -.00000463  00000+0 -13218-2 0  9998
2 47293  87.8928 143.6379 0002327  96.5707 263.5686 13.12442655163773
ONEWEB-0115             
1 48042U 21025A   24130.92437265  .00000127  00000+0  31320-3 0  9997
2 48042  87.8893 113.1649 0001852  90.2013 269.9328 13.13471530152745
ONEWEB-0152             
1 48043U 21025B   24130.93707657  .00000363  00000+0  95917-3 0  9998
2 48043  87.8896 113.1583 0001921  89.0905 271.0444 13.13470580152702
ONEWEB-0153             
1 48044U 21025C   24130.91484127 -.00000122  00000+0 -36894-3 0  9995
2 48044  87.8898 113.1495 0002114  85.9341 274.2030 13.13471015152699
ONEWEB-0154             
1 48045U 21025D   24130.91166639 -.00000167  00000+0 -49187-3 0  9999
2 48045  87.8895 113.1627 0002058  88.3612 271.7752 13.13471324152651
ONEWEB-0116             
1 48046U 21025E   24130.95292649  .00000183  00000+0  46544-3 0  9995
2 48046  87.8899 113.1222 0001826  91.1272 269.0066 13.13467680152808
ONEWEB-0150             
1 48047U 21025F   24130.92754164  .00000253  00000+0  65878-3 0  9997
2 48047  87.8894 113.1485 0002036  83.2705 276.8656 13.13471802152691
ONEWEB-0107             
1 48048U 21025G   24130.92912912  .00000199  00000+0  51015-3 0  9992
2 48048  87.8893 113.1461 0002182  79.9274 280.2101 13.13468926152675
ONEWEB-0101             
1 48049U 21025H   24130.89261314 -.00000342  00000+0 -97281-3 0  9999
2 48049  87.8899 113.1673 0002112  89.1663 270.9709 13.13468672152640
ONEWEB-0113             
1 48050U 21025J   24130.94658069  .00000306  00000+0  80196-3 0  9999
2 48050  87.8899 113.1387 0001859  90.1112 270.0230 13.13468026152735
ONEWEB-0112             
1 48051U 21025K   24130.93389263  .00000375  00000+0  99266-3 0  9990
2 48051  87.8892 113.1430 0001936  84.3018 275.8331 13.13470679152747
